{
  "type": "FeatureCollection",
  "features": [
    {
      "type": "Feature",
      "properties": {
        "norad_id": 46805,
        "name": "COSMOS 2547 (705K)",
        "group": "glo-ops",
        "lat": -31.761491198059822,
        "lon": -178.7896918811655,
        "alt_km": 19136.123240959645,
        "timestamp": "2025-12-23T20:42:37.336738+00:00",
        "meta_object_name": "COSMOS 2547 (705K)",
        "meta_object_id": "2020-075A",
        "meta_epoch": "2025-12-22T23:18:06.854688",
        "meta_mean_motion": 2.13100221,
        "meta_eccentricity": 0.00061066,
        "meta_inclination": 64.5968,
        "meta_ra_of_asc_node": 198.3547,
        "meta_arg_of_pericenter": 227.5279,
        "meta_mean_anomaly": 132.4843,
        "meta_ephemeris_type": 0,
        "meta_classification_type": "U",
        "meta_norad_cat_id": 46805,
        "meta_element_set_no": 999,
        "meta_rev_at_epoch": 4015,
        "meta_bstar": 0,
        "meta_mean_motion_dot": 9.5e-07,
        "meta_mean_motion_ddot": 0,
        "tle_line1": "1 46805U 20075A   25356.97091267  .00000095  00000+0  00000+0 0  9991",
        "tle_line2": "2 46805  64.5968 198.3547 0006106 227.5279 132.4843  2.13100221 40154"
      },
      "geometry": {
        "type": "Point",
        "coordinates": [
          -178.7896918811655,
          -31.761491198059822
        ]
      }
    },
    {
      "type": "Feature",
      "properties": {
        "norad_id": 52984,
        "name": "COSMOS 2557 (706K)",
        "group": "glo-ops",
        "lat": -15.578770077179751,
        "lon": 148.3193740553694,
        "alt_km": 19127.038604125744,
        "timestamp": "2025-12-23T20:42:37.336749+00:00",
        "meta_object_name": "COSMOS 2557 (706K)",
        "meta_object_id": "2022-075A",
        "meta_epoch": "2025-12-23T03:16:01.928352",
        "meta_mean_motion": 2.1310205,
        "meta_eccentricity": 0.00135388,
        "meta_inclination": 64.4039,
        "meta_ra_of_asc_node": 320.6862,
        "meta_arg_of_pericenter": 278.4196,
        "meta_mean_anomaly": 81.425,
        "meta_ephemeris_type": 0,
        "meta_classification_type": "U",
        "meta_norad_cat_id": 52984,
        "meta_element_set_no": 999,
        "meta_rev_at_epoch": 2696,
        "meta_bstar": 0,
        "meta_mean_motion_dot": -3.9e-07,
        "meta_mean_motion_ddot": 0,
        "tle_line1": "1 52984U 22075A   25357.13613343 -.00000039  00000+0  00000+0 0  9991",
        "tle_line2": "2 52984  64.4039 320.6862 0013538 278.4196  81.4250  2.13102050 26967"
      },
      "geometry": {
        "type": "Point",
        "coordinates": [
          148.3193740553694,
          -15.578770077179751
        ]
      }
    },
    {
      "type": "Feature",
      "properties": {
        "norad_id": 54031,
        "name": "COSMOS 2559 (707K)",
        "group": "glo-ops",
        "lat": -21.231144407769165,
        "lon": -50.00516766213528,
        "alt_km": 19157.035915342618,
        "timestamp": "2025-12-23T20:42:37.336760+00:00",
        "meta_object_name": "COSMOS 2559 (707K)",
        "meta_object_id": "2022-130A",
        "meta_epoch": "2025-12-22T22:55:41.344032",
        "meta_mean_motion": 2.131013,
        "meta_eccentricity": 0.00115317,
        "meta_inclination": 64.3764,
        "meta_ra_of_asc_node": 320.7818,
        "meta_arg_of_pericenter": 191.7827,
        "meta_mean_anomaly": 168.1884,
        "meta_ephemeris_type": 0,
        "meta_classification_type": "U",
        "meta_norad_cat_id": 54031,
        "meta_element_set_no": 999,
        "meta_rev_at_epoch": 2493,
        "meta_bstar": 0,
        "meta_mean_motion_dot": -4e-07,
        "meta_mean_motion_ddot": 0,
        "tle_line1": "1 54031U 22130A   25356.95533963 -.00000040  00000+0  00000+0 0  9998",
        "tle_line2": "2 54031  64.3764 320.7818 0011531 191.7827 168.1884  2.13101300 24935"
      },
      "geometry": {
        "type": "Point",
        "coordinates": [
          -50.00516766213528,
          -21.231144407769165
        ]
      }
    },
    {
      "type": "Feature",
      "properties": {
        "norad_id": 54377,
        "name": "COSMOS 2564 (761)",
        "group": "glo-ops",
        "lat": 64.10951935191136,
        "lon": -58.20810122548725,
        "alt_km": 19129.736837167824,
        "timestamp": "2025-12-23T20:42:37.336771+00:00",
        "meta_object_name": "COSMOS 2564 (761)",
        "meta_object_id": "2022-161A",
        "meta_epoch": "2025-12-22T19:11:15.319968",
        "meta_mean_motion": 2.13102038,
        "meta_eccentricity": 0.00085475,
        "meta_inclination": 64.7388,
        "meta_ra_of_asc_node": 198.5646,
        "meta_arg_of_pericenter": 203.7096,
        "meta_mean_anomaly": 156.316,
        "meta_ephemeris_type": 0,
        "meta_classification_type": "U",
        "meta_norad_cat_id": 54377,
        "meta_element_set_no": 999,
        "meta_rev_at_epoch": 2387,
        "meta_bstar": 0,
        "meta_mean_motion_dot": 9.5e-07,
        "meta_mean_motion_ddot": 0,
        "tle_line1": "1 54377U 22161A   25356.79948287  .00000095  00000+0  00000+0 0  9995",
        "tle_line2": "2 54377  64.7388 198.5646 0008547 203.7096 156.3160  2.13102038 23876"
      },
      "geometry": {
        "type": "Point",
        "coordinates": [
          -58.20810122548725,
          64.10951935191136
        ]
      }
    },
    {
      "type": "Feature",
      "properties": {
        "norad_id": 57517,
        "name": "COSMOS 2569 (703K)",
        "group": "glo-ops",
        "lat": 64.85055605018806,
        "lon": 158.05830957696077,
        "alt_km": 19148.647161864057,
        "timestamp": "2025-12-23T20:42:37.336782+00:00",
        "meta_object_name": "COSMOS 2569 (703K)",
        "meta_object_id": "2023-114A",
        "meta_epoch": "2025-12-23T06:46:12.296064",
        "meta_mean_motion": 2.13104025,
        "meta_eccentricity": 0.00108924,
        "meta_inclination": 65.1995,
        "meta_ra_of_asc_node": 78.5573,
        "meta_arg_of_pericenter": 287.0521,
        "meta_mean_anomaly": 72.876,
        "meta_ephemeris_type": 0,
        "meta_classification_type": "U",
        "meta_norad_cat_id": 57517,
        "meta_element_set_no": 999,
        "meta_rev_at_epoch": 1851,
        "meta_bstar": 0,
        "meta_mean_motion_dot": 0,
        "meta_mean_motion_ddot": 0,
        "tle_line1": "1 57517U 23114A   25357.28208676  .00000000  00000+0  00000+0 0  9995",
        "tle_line2": "2 57517  65.1995  78.5573 0010892 287.0521  72.8760  2.13104025 18515"
      },
      "geometry": {
        "type": "Point",
        "coordinates": [
          158.05830957696077,
          64.85055605018806
        ]
      }
    },
    {
      "type": "Feature",
      "properties": {
        "norad_id": 63130,
        "name": "COSMOS 2584 (704K)",
        "group": "glo-ops",
        "lat": 6.782689341438966,
        "lon": -104.3981393305454,
        "alt_km": 19116.14695269214,
        "timestamp": "2025-12-23T20:42:37.336792+00:00",
        "meta_object_name": "COSMOS 2584 (704K)",
        "meta_object_id": "2025-042A",
        "meta_epoch": "2025-12-22T16:47:13.376832",
        "meta_mean_motion": 2.13103045,
        "meta_eccentricity": 0.00077582,
        "meta_inclination": 64.9812,
        "meta_ra_of_asc_node": 78.8068,
        "meta_arg_of_pericenter": 220.2667,
        "meta_mean_anomaly": 139.7207,
        "meta_ephemeris_type": 0,
        "meta_classification_type": "U",
        "meta_norad_cat_id": 63130,
        "meta_element_set_no": 999,
        "meta_rev_at_epoch": 628,
        "meta_bstar": 0,
        "meta_mean_motion_dot": -2e-08,
        "meta_mean_motion_ddot": 0,
        "tle_line1": "1 63130U 25042A   25356.69946038 -.00000002  00000+0  00000+0 0  9993",
        "tle_line2": "2 63130  64.9812  78.8068 0007758 220.2667 139.7207  2.13103045  6288"
      },
      "geometry": {
        "type": "Point",
        "coordinates": [
          -104.3981393305454,
          6.782689341438966
        ]
      }
    },
    {
      "type": "Feature",
      "properties": {
        "norad_id": 65590,
        "name": "COSMOS 2596 (708K)",
        "group": "glo-ops",
        "lat": -57.65144426968516,
        "lon": -87.0881008341595,
        "alt_km": 19101.736388694626,
        "timestamp": "2025-12-23T20:42:37.336804+00:00",
        "meta_object_name": "COSMOS 2596 (708K)",
        "meta_object_id": "2025-206B",
        "meta_epoch": "2025-12-23T03:22:08.901120",
        "meta_mean_motion": 2.13100363,
        "meta_eccentricity": 0.00140926,
        "meta_inclination": 64.7387,
        "meta_ra_of_asc_node": 321.1139,
        "meta_arg_of_pericenter": 307.3847,
        "meta_mean_anomaly": 149.2418,
        "meta_ephemeris_type": 0,
        "meta_classification_type": "U",
        "meta_norad_cat_id": 65590,
        "meta_element_set_no": 999,
        "meta_rev_at_epoch": 216,
        "meta_bstar": 0,
        "meta_mean_motion_dot": -3.8e-07,
        "meta_mean_motion_ddot": 0,
        "tle_line1": "1 65590U 25206B   25357.14038080 -.00000038  00000+0  00000+0 0  9996",
        "tle_line2": "2 65590  64.7387 321.1139 0014092 307.3847 149.2418  2.13100363  2167"
      },
      "geometry": {
        "type": "Point",
        "coordinates": [
          -87.0881008341595,
          -57.65144426968516
        ]
      }
    }
  ]
}